start=new Date('2022-01-11T00:00:00.000Z').valueOf();
sats=[{"OBJECT_TYPE":"PAYLOAD","REF_FRAME":"TEME","FILE":"3268856","MEAN_MOTION_DDOT":"0.0000000000000","RCS_SIZE":"LARGE","OBJECT_NAME":"STARLINK-2187","BSTAR":"0.00013267000000","TLE_LINE1":"1 48562U 21041K   22010.53722124  .00001695  00000-0  13267-3 0  9997","SITE":"AFETR","GP_ID":"193595842","TLE_LINE2":"2 48562  53.0561 111.3673 0001904 118.9399 241.1781 15.06406846 36231","PERIOD":"95.592","MEAN_ANOMALY":"241.1781","MEAN_MOTION_DOT":"0.00001695","INCLINATION":"53.0561","PERIAPSIS":"545.874","OBJECT_ID":"2021-041K","TIME_SYSTEM":"UTC","DECAY_DATE":null,"SEMIMAJOR_AXIS":"6925.328","ECCENTRICITY":"0.00019040","REV_AT_EPOCH":"3623","EPHEMERIS_TYPE":"0","NORAD_CAT_ID":"48562","MEAN_ELEMENT_THEORY":"SGP4","COUNTRY_CODE":"US","APOAPSIS":"548.511","ELEMENT_SET_NO":"999","LAUNCH_DATE":"2021-05-15","EPOCH":"2022-01-10T12:53:35.915136","CLASSIFICATION_TYPE":"U","ARG_OF_PERICENTER":"118.9399","MEAN_MOTION":"15.06406846","CENTER_NAME":"EARTH","RA_OF_ASC_NODE":"111.3673"},{"CLASSIFICATION_TYPE":"U","CENTER_NAME":"EARTH","MEAN_MOTION":"15.06404298","RA_OF_ASC_NODE":"111.2860","ARG_OF_PERICENTER":"100.1572","NORAD_CAT_ID":"48563","MEAN_ELEMENT_THEORY":"SGP4","TIME_SYSTEM":"UTC","EPHEMERIS_TYPE":"0","SEMIMAJOR_AXIS":"6925.335","DECAY_DATE":null,"ECCENTRICITY":"0.00015380","REV_AT_EPOCH":"3623","EPOCH":"2022-01-10T13:20:08.668032","ELEMENT_SET_NO":"999","APOAPSIS":"548.266","COUNTRY_CODE":"US","LAUNCH_DATE":"2021-05-15","MEAN_ANOMALY":"259.9590","PERIOD":"95.592","TLE_LINE2":"2 48563  53.0553 111.2860 0001538 100.1572 259.9590 15.06404298 36233","SITE":"AFETR","GP_ID":"193596085","OBJECT_ID":"2021-041L","INCLINATION":"53.0553","MEAN_MOTION_DOT":"0.00000051","PERIAPSIS":"546.135","FILE":"3268856","MEAN_MOTION_DDOT":"0.0000000000000","OBJECT_TYPE":"PAYLOAD","REF_FRAME":"TEME","OBJECT_NAME":"STARLINK-2188","TLE_LINE1":"1 48563U 21041L   22010.55565588  .00000051  00000-0  22313-4 0  9997","BSTAR":"0.00002231300000","RCS_SIZE":"LARGE"},{"EPOCH":"2022-01-10T13:09:31.393728","LAUNCH_DATE":"2021-05-15","APOAPSIS":"548.242","COUNTRY_CODE":"US","ELEMENT_SET_NO":"999","NORAD_CAT_ID":"48564","MEAN_ELEMENT_THEORY":"SGP4","DECAY_DATE":null,"ECCENTRICITY":"0.00015240","SEMIMAJOR_AXIS":"6925.322","REV_AT_EPOCH":"3623","EPHEMERIS_TYPE":"0","TIME_SYSTEM":"UTC","RA_OF_ASC_NODE":"111.3214","MEAN_MOTION":"15.06408653","CENTER_NAME":"EARTH","ARG_OF_PERICENTER":"97.0675","CLASSIFICATION_TYPE":"U","BSTAR":"0.00005519300000","TLE_LINE1":"1 48564U 21041M   22010.54828002  .00000541  00000-0  55193-4 0  9996","OBJECT_NAME":"STARLINK-2190","RCS_SIZE":"LARGE","MEAN_MOTION_DDOT":"0.0000000000000","FILE":"3268856","REF_FRAME":"TEME","OBJECT_TYPE":"PAYLOAD","OBJECT_ID":"2021-041M","PERIAPSIS":"546.132","MEAN_MOTION_DOT":"0.00000541","INCLINATION":"53.0564","PERIOD":"95.592","TLE_LINE2":"2 48564  53.0564 111.3214 0001524  97.0675 263.0487 15.06408653 36233","MEAN_ANOMALY":"263.0487","SITE":"AFETR","GP_ID":"193596844"},{"OBJECT_ID":"2021-041N","PERIAPSIS":"546.328","INCLINATION":"53.0560","MEAN_MOTION_DOT":"0.00002580","MEAN_ANOMALY":"260.6437","PERIOD":"95.592","TLE_LINE2":"2 48565  53.0560 111.3385 0001259  99.4695 260.6437 15.06404314 36689","GP_ID":"193600863","SITE":"AFETR","BSTAR":"0.00019204000000","TLE_LINE1":"1 48565U 21041N   22010.54459569  .00002580  00000-0  19204-3 0  9992","OBJECT_NAME":"STARLINK-2191","RCS_SIZE":"LARGE","MEAN_MOTION_DDOT":"0.0000000000000","FILE":"3269009","REF_FRAME":"TEME","OBJECT_TYPE":"PAYLOAD","RA_OF_ASC_NODE":"111.3385","CENTER_NAME":"EARTH","MEAN_MOTION":"15.06404314","ARG_OF_PERICENTER":"99.4695","CLASSIFICATION_TYPE":"U","EPOCH":"2022-01-10T13:04:13.067616","LAUNCH_DATE":"2021-05-15","ELEMENT_SET_NO":"999","COUNTRY_CODE":"US","APOAPSIS":"548.072","NORAD_CAT_ID":"48565","MEAN_ELEMENT_THEORY":"SGP4","EPHEMERIS_TYPE":"0","DECAY_DATE":null,"SEMIMAJOR_AXIS":"6925.335","REV_AT_EPOCH":"3668","ECCENTRICITY":"0.00012590","TIME_SYSTEM":"UTC"},{"REF_FRAME":"TEME","OBJECT_TYPE":"PAYLOAD","MEAN_MOTION_DDOT":"0.0000000000000","FILE":"3269009","RCS_SIZE":"MEDIUM","TLE_LINE1":"1 48566U 21041P   22010.56853699 -.00000241  00000-0  26920-5 0  9995","BSTAR":"0.00000269200000","OBJECT_NAME":"STARLINK-2214","SITE":"AFETR","GP_ID":"193600861","MEAN_ANOMALY":"261.2347","TLE_LINE2":"2 48566  53.0559 121.2229 0001565  98.8819 261.2347 15.06401404 36499","PERIOD":"95.592","PERIAPSIS":"546.125","MEAN_MOTION_DOT":"-0.00000241","INCLINATION":"53.0559","OBJECT_ID":"2021-041P","EPHEMERIS_TYPE":"0","DECAY_DATE":null,"SEMIMAJOR_AXIS":"6925.344","ECCENTRICITY":"0.00015650","REV_AT_EPOCH":"3649","TIME_SYSTEM":"UTC","MEAN_ELEMENT_THEORY":"SGP4","NORAD_CAT_ID":"48566","LAUNCH_DATE":"2021-05-15","ELEMENT_SET_NO":"999","COUNTRY_CODE":"US","APOAPSIS":"548.293","EPOCH":"2022-01-10T13:38:41.595936","CLASSIFICATION_TYPE":"U","ARG_OF_PERICENTER":"98.8819","RA_OF_ASC_NODE":"121.2229","CENTER_NAME":"EARTH","MEAN_MOTION":"15.06401404"},{"RCS_SIZE":"LARGE","OBJECT_NAME":"STARLINK-2215","BSTAR":"0.00011528000000","TLE_LINE1":"1 48567U 21041Q   22010.58053118  .00001436  00000-0  11528-3 0  9998","OBJECT_TYPE":"PAYLOAD","REF_FRAME":"TEME","FILE":"3268856","MEAN_MOTION_DDOT":"0.0000000000000","INCLINATION":"53.0550","MEAN_MOTION_DOT":"0.00001436","PERIAPSIS":"546.307","OBJECT_ID":"2021-041Q","GP_ID":"193596585","SITE":"AFETR","MEAN_ANOMALY":"263.7957","PERIOD":"95.592","TLE_LINE2":"2 48567  53.0550 121.1573 0001302  96.3181 263.7957 15.06401617 36092","ELEMENT_SET_NO":"999","COUNTRY_CODE":"US","APOAPSIS":"548.110","LAUNCH_DATE":"2021-05-15","EPOCH":"2022-01-10T13:55:57.893952","TIME_SYSTEM":"UTC","EPHEMERIS_TYPE":"0","SEMIMAJOR_AXIS":"6925.344","DECAY_DATE":null,"ECCENTRICITY":"0.00013020","REV_AT_EPOCH":"3609","NORAD_CAT_ID":"48567","MEAN_ELEMENT_THEORY":"SGP4","ARG_OF_PERICENTER":"96.3181","CENTER_NAME":"EARTH","MEAN_MOTION":"15.06401617","RA_OF_ASC_NODE":"121.1573","CLASSIFICATION_TYPE":"U"},{"OBJECT_TYPE":"PAYLOAD","REF_FRAME":"TEME","FILE":"3269009","MEAN_MOTION_DDOT":"0.0000000000000","RCS_SIZE":"MEDIUM","OBJECT_NAME":"STARLINK-2217","TLE_LINE1":"1 48568U 21041R   22010.59251495  .00000930  00000-0  81305-4 0  9997","BSTAR":"0.00008130500000","GP_ID":"193601362","SITE":"AFETR","MEAN_ANOMALY":"256.9091","TLE_LINE2":"2 48568  53.0560 111.1035 0001253 103.2038 256.9091 15.06400869 36631","PERIOD":"95.592","MEAN_MOTION_DOT":"0.00000930","INCLINATION":"53.0560","PERIAPSIS":"546.343","OBJECT_ID":"2021-041R","TIME_SYSTEM":"UTC","EPHEMERIS_TYPE":"0","ECCENTRICITY":"0.00012530","DECAY_DATE":null,"SEMIMAJOR_AXIS":"6925.346","REV_AT_EPOCH":"3663","NORAD_CAT_ID":"48568","MEAN_ELEMENT_THEORY":"SGP4","ELEMENT_SET_NO":"999","COUNTRY_CODE":"US","APOAPSIS":"548.079","LAUNCH_DATE":"2021-05-15","EPOCH":"2022-01-10T14:13:13.291680","CLASSIFICATION_TYPE":"U","ARG_OF_PERICENTER":"103.2038","CENTER_NAME":"EARTH","MEAN_MOTION":"15.06400869","RA_OF_ASC_NODE":"111.1035"},{"TIME_SYSTEM":"UTC","EPHEMERIS_TYPE":"0","DECAY_DATE":null,"SEMIMAJOR_AXIS":"6925.298","ECCENTRICITY":"0.00013230","REV_AT_EPOCH":"3623","NORAD_CAT_ID":"48569","MEAN_ELEMENT_THEORY":"SGP4","ELEMENT_SET_NO":"999","APOAPSIS":"548.079","COUNTRY_CODE":"US","LAUNCH_DATE":"2021-05-15","EPOCH":"2022-01-10T13:14:50.812800","CLASSIFICATION_TYPE":"U","ARG_OF_PERICENTER":"92.9377","CENTER_NAME":"EARTH","MEAN_MOTION":"15.06416439","RA_OF_ASC_NODE":"111.3043","OBJECT_TYPE":"PAYLOAD","REF_FRAME":"TEME","FILE":"3268856","MEAN_MOTION_DDOT":"0.0000000000000","RCS_SIZE":"LARGE","OBJECT_NAME":"STARLINK-2219","TLE_LINE1":"1 48569U 21041S   22010.55197700  .00006545  00000-0  45770-3 0  9995","BSTAR":"0.00045770000000","SITE":"AFETR","GP_ID":"193597589","MEAN_ANOMALY":"267.1763","PERIOD":"95.591","TLE_LINE2":"2 48569  53.0540 111.3043 0001323  92.9377 267.1763 15.06416439 36235","INCLINATION":"53.0540","MEAN_MOTION_DOT":"0.00006545","PERIAPSIS":"546.247","OBJECT_ID":"2021-041S"},{"BSTAR":"0.00030485000000","TLE_LINE1":"1 48570U 21041T   22010.60633585  .00004264  00000-0  30485-3 0  9992","OBJECT_NAME":"STARLINK-2220","RCS_SIZE":"LARGE","MEAN_MOTION_DDOT":"0.0000000000000","FILE":"3268856","REF_FRAME":"TEME","OBJECT_TYPE":"PAYLOAD","OBJECT_ID":"2021-041T","PERIAPSIS":"546.039","MEAN_MOTION_DOT":"0.00004264","INCLINATION":"53.0533","MEAN_ANOMALY":"264.4667","PERIOD":"95.591","TLE_LINE2":"2 48570  53.0533 121.0423 0001637  95.6509 264.4667 15.06413378 36090","GP_ID":"193595843","SITE":"AFETR","EPOCH":"2022-01-10T14:33:07.417440","LAUNCH_DATE":"2021-05-15","ELEMENT_SET_NO":"999","COUNTRY_CODE":"US","APOAPSIS":"548.306","NORAD_CAT_ID":"48570","MEAN_ELEMENT_THEORY":"SGP4","EPHEMERIS_TYPE":"0","SEMIMAJOR_AXIS":"6925.308","DECAY_DATE":null,"REV_AT_EPOCH":"3609","ECCENTRICITY":"0.00016370","TIME_SYSTEM":"UTC","RA_OF_ASC_NODE":"121.0423","CENTER_NAME":"EARTH","MEAN_MOTION":"15.06413378","ARG_OF_PERICENTER":"95.6509","CLASSIFICATION_TYPE":"U"},{"MEAN_ELEMENT_THEORY":"SGP4","NORAD_CAT_ID":"48571","TIME_SYSTEM":"UTC","EPHEMERIS_TYPE":"0","REV_AT_EPOCH":"3610","DECAY_DATE":null,"SEMIMAJOR_AXIS":"6925.328","ECCENTRICITY":"0.00015400","EPOCH":"2022-01-10T14:43:44.353920","ELEMENT_SET_NO":"999","APOAPSIS":"548.259","COUNTRY_CODE":"US","LAUNCH_DATE":"2021-05-15","CLASSIFICATION_TYPE":"U","CENTER_NAME":"EARTH","MEAN_MOTION":"15.06406711","RA_OF_ASC_NODE":"121.0265","ARG_OF_PERICENTER":"95.2867","FILE":"3269118","MEAN_MOTION_DDOT":"0.0000000000000","OBJECT_TYPE":"PAYLOAD","REF_FRAME":"TEME","OBJECT_NAME":"STARLINK-2221","BSTAR":"0.00006493200000","TLE_LINE1":"1 48571U 21041U   22010.61370780  .00000686  00000-0  64932-4 0  9998","RCS_SIZE":"LARGE","MEAN_ANOMALY":"264.8297","TLE_LINE2":"2 48571  53.0563 121.0265 0001540  95.2867 264.8297 15.06406711 36102","PERIOD":"95.592","SITE":"AFETR","GP_ID":"193626496","OBJECT_ID":"2021-041U","INCLINATION":"53.0563","MEAN_MOTION_DOT":"0.00000686","PERIAPSIS":"546.126"}];
